[{"OBJECT_NAME":"STARLINK-3075","OBJECT_ID":"2021-104B","EPOCH":"2026-03-09T15:50:59.290080","MEAN_MOTION":15.08836293,"ECCENTRICITY":0.0001306,"INCLINATION":53.2175,"RA_OF_ASC_NODE":229.2531,"ARG_OF_PERICENTER":90.8705,"MEAN_ANOMALY":269.2436,"EPHEMERIS_TYPE":0,"CLASSIFICATION_TYPE":"U","NORAD_CAT_ID":49409,"ELEMENT_SET_NO":999,"REV_AT_EPOCH":23863,"BSTAR":1.6255609e-5,"MEAN_MOTION_DOT":-2.9e-7,"MEAN_MOTION_DDOT":0},{"OBJECT_NAME":"ICEYE-X67","OBJECT_ID":"2025-248K","EPOCH":"2026-03-09T22:00:01.999584","MEAN_MOTION":15.09405994,"ECCENTRICITY":0.00063951,"INCLINATION":45.4045,"RA_OF_ASC_NODE":295.7576,"ARG_OF_PERICENTER":209.4534,"MEAN_ANOMALY":51.9892,"EPHEMERIS_TYPE":0,"CLASSIFICATION_TYPE":"U","NORAD_CAT_ID":66302,"ELEMENT_SET_NO":999,"REV_AT_EPOCH":578,"BSTAR":-0.000164009,"MEAN_MOTION_DOT":-2.917e-5,"MEAN_MOTION_DDOT":0}]
